BEIDOU-2 IGSO-1 (C06)   
1 36828U 10036A   26063.53912355 -.00000138  00000+0  00000+0 0  9998
2 36828  54.2925 163.9091 0054014 218.9469  78.5819  1.00252363 57044
BEIDOU-2 G4 (C04)       
1 37210U 10057A   26064.27884045 -.00000119  00000+0  00000+0 0  9992
2 37210   3.3891  69.5464 0008965 211.2854 142.5736  1.00272225 56240
BEIDOU-2 IGSO-2 (C07)   
1 37256U 10068A   26063.55016868 -.00000178  00000+0  00000+0 0  9999
2 37256  47.7317 273.1244 0047330 213.1251 341.1802  1.00258965 55745
BEIDOU-2 IGSO-3 (C08)   
1 37384U 11013A   26058.90884667 -.00000154  00000+0  00000+0 0  9999
2 37384  62.2642  41.1818 0035029 190.8154 358.7681  1.00294022 54567
BEIDOU-2 IGSO-4 (C09)   
1 37763U 11038A   26063.65270079 -.00000106  00000+0  00000+0 0  9998
2 37763  54.5895 166.6175 0154496 230.9812  94.2035  1.00265629 53596
BEIDOU-2 IGSO-5 (C10)   
1 37948U 11073A   26063.54783174 -.00000153  00000+0  00000+0 0  9997
2 37948  47.8676 272.8369 0108588 221.1171 320.7210  1.00272598 52087
BEIDOU-2 G5 (C05)       
1 38091U 12008A   26064.16701685  .00000048  00000+0  00000+0 0  9994
2 38091   3.3145  70.3097 0014052 250.8280 320.6959  1.00276658 51322
BEIDOU-2 M3 (C11)       
1 38250U 12018A   26064.01894757 -.00000067  00000+0  00000+0 0  9991
2 38250  55.8459 308.3877 0021143 279.6641  80.1555  1.86229807 94008
BEIDOU-2 M4 (C12)       
1 38251U 12018B   26062.87717712 -.00000061  00000+0  00000+0 0  9993
2 38251  55.7474 307.6486 0012644 286.4281  73.4931  1.86229513 93988
BEIDOU-2 M6 (C14)       
1 38775U 12050B   26063.66128696 -.00000027  00000+0  00000+0 0  9997
2 38775  56.4533  66.3489 0013968 341.8059  18.1670  1.86230964 91362
BEIDOU-2 G6 (C02)       
1 38953U 12059A   26063.10227411 -.00000185  00000+0  00000+0 0  9993
2 38953   4.1554  74.6500 0010671 304.2337 263.7683  1.00269514 48856
BEIDOU-3S IGSO-1S (C31) 
1 40549U 15019A   26063.61908200 -.00000163  00000+0  00000+0 0  9990
2 40549  49.3899 296.7211 0035837 190.4572 354.5406  1.00273677 40024
BEIDOU-3S M2S (C58)     
1 40748U 15037A   26064.15514271 -.00000065  00000+0  00000+0 0  9993
2 40748  54.9621 305.6294 0008821 278.3568  81.6004  1.86231809 72184
BEIDOU-3S M1S (C57)     
1 40749U 15037B   26061.69084880 -.00000053  00000+0  00000+0 0  9995
2 40749  54.9610 305.7025 0004647  29.9008 330.1863  1.86253746 72142
BEIDOU-2 IGSO-6 (C13)   
1 41434U 16021A   26063.86672000 -.00000150  00000+0  00000+0 0  9997
2 41434  60.0872  39.0732 0059807 233.4204 297.8613  1.00278464 36436
BEIDOU-2 G7 (C03)       
1 41586U 16037A   26063.98254987 -.00000361  00000+0  00000+0 0  9999
2 41586   1.4631  68.2136 0007634 342.0505 216.6686  1.00267194  5848
BEIDOU-3 M1 (C19)       
1 43001U 17069A   26063.96368704 -.00000029  00000+0  00000+0 0  9991
2 43001  56.6017  66.5157 0012381 309.6653  50.2473  1.86231070 56664
